STARLINK-35877          
1 67049U 25294V   25360.25003472 -.01930720  00000+0 -20202-1 0  9997
2 67049  42.9998  99.5962 0001203 269.1835 301.4432 15.66676189  2474
STARLINK-36078          
1 67050U 25294W   25360.25003472 -.01929189  00000+0 -20200-1 0  9994
2 67050  43.0002  99.5902 0001275 268.3883 304.4148 15.66656801  2398
STARLINK-35706          
1 67051U 25294X   25360.25003472 -.01931933  00000+0 -20245-1 0  9994
2 67051  43.0000  99.5848 0001266 266.2568 308.7112 15.66641523  2475
STARLINK-35720          
1 67052U 25294Y   25360.25003472 -.01930863  00000+0 -20235-1 0  9995
2 67052  43.0002  99.5799 0001265 268.3620 308.5660 15.66638055  2465
STARLINK-35739          
1 67053U 25294Z   25360.25003472 -.01927780  00000+0 -20211-1 0  9994
2 67053  43.0003  99.5749 0001285 268.8398 310.1767 15.66622246  2126
STARLINK-35754          
1 67054U 25294AA  25360.25003472 -.01932747  00000+0 -20283-1 0  9993
2 67054  43.0001  99.5694 0001319 268.5350 312.6689 15.66606218  2285
STARLINK-35790          
1 67055U 25294AB  25360.25003472 -.01930303  00000+0 -20269-1 0  9994
2 67055  42.9999  99.5632 0001325 266.8561 316.4914 15.66588465  2471
STARLINK-36143          
1 67056U 25294AC  25360.25003472 -.01927025  00000+0 -20247-1 0  9998
2 67056  42.9999  99.5481 0001288 267.2410 322.0904 15.66568527  2479
STARLINK-36141          
1 67057U 25294AD  25360.25003472 -.01927641  00000+0 -20246-1 0  9992
2 67057  43.0000  99.5534 0001284 267.2226 320.0734 15.66578080  2390
STARLINK-35767          
1 67058U 25294AE  25360.25003472 -.01931019  00000+0 -20284-1 0  9999
2 67058  43.0002  99.5584 0001216 266.2691 319.0778 15.66581209  2289
HULIANWANG DIGUI-119    
1 67059U 25295A   25360.23706996  .00000038  00000+0  84513-4 0  9993
2 67059  50.0050 315.3085 0014011 294.0141  65.9306 14.24617370  2042
HULIANWANG DIGUI-120    
1 67060U 25295B   25357.77762159  .00000001  00000+0  67209-4 0  9996
2 67060  50.0058 325.6343 0013178 286.4479  73.4987 14.25711377  1697
